{"type": "FeatureCollection", "note": "Hand-digitised extents, traced in QGIS over a georeferenced source map (EPSG:4326). Each feature needs properties.place_id (e.g. CZ-011) and properties.source (which map it was traced from, e.g. 'ICC 1909 map'). A polygon may only ever be traced from a source - never sketched from intuition. Where a place has no polygon here, the map falls back to its honest circle/glyph rendering.", "features": [{"type": "Feature", "properties": {"place_id": "CZ-012", "source": "Map of Gorgona, saloon licensing, 1:2000, Dec 1908 (pcc00017) - built-up extent as drawn"}, "geometry": {"type": "Polygon", "coordinates": [[[-79.726067, 9.116711], [-79.725041, 9.116978], [-79.72456, 9.116466], [-79.723326, 9.116324], [-79.723165, 9.115156], [-79.72404, 9.11497], [-79.724476, 9.114347], [-79.724761, 9.113805], [-79.725522, 9.113624], [-79.726043, 9.114172], [-79.726553, 9.114456], [-79.726118, 9.115496], [-79.725948, 9.116223], [-79.726067, 9.116711]]]}}, {"type": "Feature", "properties": {"place_id": "CZ-011", "source": "General map of Empire c.1909 (pcc00020, ~1:1000) - built-up extent as drawn", "notes": "Re-anchored 2026-09-09 by (+838 m N, -291 m W) to the 1905-06 survey (Map No.3) - the plan chain carried an absolute shift; +-200 m"}, "geometry": {"type": "Polygon", "coordinates": [[[-79.677471, 9.06107], [-79.6768, 9.061687], [-79.675001, 9.063538], [-79.673767, 9.064878], [-79.670044, 9.06538], [-79.669448, 9.065117], [-79.669755, 9.062128], [-79.669534, 9.061383], [-79.67098, 9.059295], [-79.671902, 9.059982], [-79.673301, 9.059121], [-79.674116, 9.060023], [-79.676111, 9.059425], [-79.677471, 9.06107]]]}}, {"type": "Feature", "properties": {"place_id": "CZ-013", "source": "Map of Culebra, Sept 1910 (pcc00016) - town band on cut rim; georef along-canal K.54-corroborated"}, "geometry": {"type": "Polygon", "coordinates": [[[-79.643023, 9.033821], [-79.649643, 9.039918], [-79.655562, 9.046085], [-79.654508, 9.046945], [-79.648289, 9.041023], [-79.64212, 9.034558], [-79.643023, 9.033821]]]}}, {"type": "Feature", "properties": {"place_id": "CZ-013", "source": "Map of New Town near Culebra, Oct 1905 (pcc00015) - PLANNED relocation grid, a proposal"}, "geometry": {"type": "Polygon", "coordinates": [[[-79.656569, 9.05338], [-79.653446, 9.050246], [-79.654038, 9.049671], [-79.65716, 9.052806], [-79.656569, 9.05338]]]}}, {"type": "Feature", "properties": {"place_id": "CZ-012", "source": "ICC Surveys 1905-06 Map No.2 - town as surveyed pre-flood"}, "geometry": {"type": "Polygon", "coordinates": [[[-79.725857, 9.116768], [-79.72311, 9.114635], [-79.72288, 9.112535], [-79.724652, 9.111509], [-79.727296, 9.111679], [-79.728956, 9.113448], [-79.728227, 9.11532], [-79.725857, 9.116768]]]}}, {"type": "Feature", "properties": {"place_id": "CZ-023", "source": "ICC Surveys 1905-06 Map No.2 - occupied village (abandoned site separate)"}, "geometry": {"type": "Polygon", "coordinates": [[[-79.804235, 9.171439], [-79.801511, 9.168536], [-79.802507, 9.167832], [-79.805231, 9.170735], [-79.804235, 9.171439]]]}}, {"type": "Feature", "properties": {"place_id": "CZ-003", "source": "ICC Surveys 1905-06 Map No.2 - Las Cruces village (extent may continue past sheet crop)"}, "geometry": {"type": "Polygon", "coordinates": [[[-79.687882, 9.124839], [-79.685385, 9.122177], [-79.686182, 9.121614], [-79.688679, 9.124275], [-79.687882, 9.124839]]]}}, {"type": "Feature", "properties": {"place_id": "CZ-016", "source": "ICC Surveys 1905-06 Map No.1 - Bohio village on Chagres bend"}, "geometry": {"type": "Polygon", "coordinates": [[[-79.854688, 9.191479], [-79.853745, 9.187215], [-79.858248, 9.186063], [-79.859191, 9.190327], [-79.854688, 9.191479]]]}}, {"type": "Feature", "properties": {"place_id": "CZ-009", "source": "ICC Surveys 1905-06 Map No.1 - Old Gatun: hillside rows + flat by GATUN label (island cluster excluded)"}, "geometry": {"type": "Polygon", "coordinates": [[[-79.924827, 9.282711], [-79.922663, 9.271778], [-79.928082, 9.266563], [-79.932388, 9.265462], [-79.933239, 9.269312], [-79.926485, 9.275347], [-79.927937, 9.281916], [-79.924827, 9.282711]]]}}, {"type": "Feature", "properties": {"place_id": "CZ-004", "source": "ICC Surveys 1905-06 Map No.1 - Ahorca Lagarto hamlet"}, "geometry": {"type": "Polygon", "coordinates": [[[-79.875564, 9.213889], [-79.875046, 9.211544], [-79.876532, 9.211164], [-79.87705, 9.213509], [-79.875564, 9.213889]]]}}, {"type": "Feature", "properties": {"place_id": "CZ-044", "source": "ICC Surveys 1905-06 Map No.2 - Juan Grande hamlet"}, "geometry": {"type": "Polygon", "coordinates": [[[-79.741271, 9.119921], [-79.739228, 9.117743], [-79.740557, 9.116805], [-79.7426, 9.118982], [-79.741271, 9.119921]]]}}, {"type": "Feature", "properties": {"place_id": "CZ-012", "source": "GORPAN1895 sheet 1 (re-anchored 2026-09-14) (French, ~1:5000) - 1895 town (N edge at crop limit)"}, "geometry": {"type": "Polygon", "coordinates": [[[-79.726742, 9.116784], [-79.723802, 9.113957], [-79.725123, 9.112617], [-79.726388, 9.113658], [-79.727543, 9.113202], [-79.727952, 9.11377], [-79.72756, 9.114524], [-79.727748, 9.115139], [-79.727536, 9.11598], [-79.726742, 9.116784]]]}}, {"type": "Feature", "properties": {"place_id": "CZ-001", "source": "GORPAN1895 sheet 1 (re-anchored 2026-09-14) - Matachin town incl. rail rows (La Loma hamlet excluded)"}, "geometry": {"type": "Polygon", "coordinates": [[[-79.709058, 9.110925], [-79.708088, 9.110211], [-79.707426, 9.109096], [-79.70604, 9.108982], [-79.704653, 9.10878], [-79.705578, 9.107842], [-79.707367, 9.108083], [-79.708444, 9.108509], [-79.70954, 9.108649], [-79.710218, 9.109213], [-79.710609, 9.110068], [-79.70963, 9.110257], [-79.709058, 9.110925]]]}}, {"type": "Feature", "properties": {"place_id": "CZ-014", "source": "GORPAN1895 sheet 1 (re-anchored 2026-09-14) - building rows near Barrage deversoir; identification as Bas Obispo proper UNCERTAIN (may be works camp)"}, "geometry": {"type": "Polygon", "coordinates": [[[-79.696816, 9.10359], [-79.695606, 9.103209], [-79.69465, 9.101943], [-79.695575, 9.101005], [-79.696296, 9.101437], [-79.696621, 9.102358], [-79.696943, 9.103104], [-79.696816, 9.10359]]]}}, {"type": "Feature", "properties": {"place_id": "CZ-015", "source": "GORPAN1895 sheet 1 (re-anchored 2026-09-14) - Las Cascadas village row on P.R.R."}, "geometry": {"type": "Polygon", "coordinates": [[[-79.684178, 9.08731], [-79.683219, 9.086388], [-79.683383, 9.086223], [-79.684341, 9.087144], [-79.684178, 9.08731]]]}}, {"type": "Feature", "properties": {"place_id": "CZ-011", "source": "GORPAN1895 sheet 2 (re-anchored 2026-09-14) - Emperador town row at wharf (French era) [refit v2 2026-09-14]"}, "geometry": {"type": "Polygon", "coordinates": [[[-79.672619, 9.063672], [-79.669758, 9.06083], [-79.670237, 9.060359], [-79.673099, 9.063202], [-79.672619, 9.063672]]]}}, {"type": "Feature", "properties": {"place_id": "CZ-013", "source": "GORPAN1895 sheet 2 (re-anchored 2026-09-14) - Culebra native village on rim (Campement excluded) [refit v2 2026-09-14]"}, "geometry": {"type": "Polygon", "coordinates": [[[-79.655313, 9.051757], [-79.65404, 9.050692], [-79.652936, 9.04953], [-79.652, 9.048334], [-79.652336, 9.048003], [-79.654213, 9.049334], [-79.655084, 9.049668], [-79.655955, 9.050135], [-79.656356, 9.050733], [-79.65612, 9.051295], [-79.655683, 9.051592], [-79.655313, 9.051757]]]}}, {"type": "Feature", "properties": {"place_id": "CZ-024", "source": "GORPAN1895 sheet 2 (re-anchored 2026-09-14) - Paraiso village (label sits ~500 m NW of houses) [refit v2 2026-09-14]"}, "geometry": {"type": "Polygon", "coordinates": [[[-79.622988, 9.031647], [-79.621398, 9.030178], [-79.621121, 9.029127], [-79.621682, 9.028688], [-79.622521, 9.028634], [-79.623303, 9.029079], [-79.624365, 9.029247], [-79.625035, 9.029913], [-79.624081, 9.030848], [-79.623241, 9.031012], [-79.622988, 9.031647]]]}}, {"type": "Feature", "properties": {"place_id": "CZ-020", "source": "GORPAN1895 sheet 2 (re-anchored 2026-09-14) - Pedro Miguel rows on P.R.R. [refit v2 2026-09-14]"}, "geometry": {"type": "Polygon", "coordinates": [[[-79.612762, 9.022005], [-79.610754, 9.020011], [-79.611108, 9.019663], [-79.613115, 9.021658], [-79.612762, 9.022005]]]}}, {"type": "Feature", "properties": {"place_id": "CZ-021", "source": "GORPAN1895 sheet 3 - La Boca company town below Cerro Sosa"}, "geometry": {"type": "Polygon", "coordinates": [[[-79.56424, 8.949638], [-79.562732, 8.94856], [-79.564915, 8.945581], [-79.566422, 8.946659], [-79.56424, 8.949638]]]}}, {"type": "Feature", "properties": {"place_id": "CZ-035", "source": "Culebra Div. encampment plans, June 1907 (sheet 3) - Camp Elliott extent"}, "geometry": {"type": "Polygon", "coordinates": [[[-79.688628, 9.100926], [-79.688221, 9.100195], [-79.689299, 9.09961], [-79.689706, 9.100341], [-79.688628, 9.100926]]]}}, {"type": "Feature", "properties": {"place_id": "CZ-155", "source": "Culebra Div. encampment plans, June 1907 (sheet 4) - Buena Vista camp extent"}, "geometry": {"type": "Polygon", "coordinates": [[[-79.683192, 9.093412], [-79.682269, 9.09176], [-79.683407, 9.09114], [-79.68433, 9.092793], [-79.683192, 9.093412]]]}}, {"type": "Feature", "properties": {"place_id": "CZ-058", "source": "Culebra Div. encampment plans, June 1907 (sheet 15) - Enterprise camp extent"}, "geometry": {"type": "Polygon", "coordinates": [[[-79.654063, 9.050398], [-79.653114, 9.049252], [-79.653695, 9.048783], [-79.654644, 9.049929], [-79.654063, 9.050398]]]}}, {"type": "Feature", "properties": {"place_id": "CZ-013", "source": "Culebra Div. encampment plans, June 1907 (sheet 15) - NEW Culebra as built (matches the 1905 planned grid within ~130 m)"}, "geometry": {"type": "Polygon", "coordinates": [[[-79.656209, 9.05249], [-79.654447, 9.050361], [-79.655719, 9.049335], [-79.657481, 9.051464], [-79.656209, 9.05249]]]}}, {"type": "Feature", "properties": {"place_id": "CZ-011", "source": "Culebra Div. encampment plans, June 1907 (sheet 9) - Empire hill quarters"}, "geometry": {"type": "Polygon", "coordinates": [[[-79.664773, 9.063028], [-79.66255, 9.060056], [-79.665496, 9.057907], [-79.667719, 9.06088], [-79.664773, 9.063028]]]}}, {"type": "Feature", "properties": {"place_id": "CZ-013", "source": "CULEBRACAMPS map 13 'Culebra' (LOC 83694727 file 014), June 1907, 1:1000", "label": "Old Culebra built-up area incl. W hill quarters, June 1907", "notes": "Building-level envelope (generalized hull incl. Corral S outlier). Rotation/scale from French-Tangent station ticks; along-tangent position pinned to the ICC1911 ring / CULEBRA1910 / 1895 cluster; the sheet's own K.54 tick conflicts by 830 m (see GEOREF_LOG). +-150-200 m absolute."}, "geometry": {"type": "Polygon", "coordinates": [[[-79.658542, 9.054026], [-79.658219, 9.054042], [-79.657618, 9.05341], [-79.657281, 9.052736], [-79.657324, 9.052315], [-79.656615, 9.051967], [-79.656003, 9.05145], [-79.65554, 9.051114], [-79.654375, 9.050375], [-79.653901, 9.049755], [-79.654256, 9.049394], [-79.653796, 9.048276], [-79.65433, 9.047878], [-79.655171, 9.047495], [-79.656303, 9.047236], [-79.656517, 9.047515], [-79.655778, 9.047968], [-79.656354, 9.048658], [-79.657002, 9.049441], [-79.657515, 9.050178], [-79.657962, 9.050867], [-79.657983, 9.051435], [-79.658519, 9.051815], [-79.659058, 9.052483], [-79.659293, 9.053281], [-79.658542, 9.054026]]]}}, {"type": "Feature", "properties": {"place_id": "CZ-024", "source": "CULEBRACAMPS map 17 'Paraiso' (LOC 83694727 file 019), June 1907, 1:1000", "label": "Paraiso hillside quarters built-up area, June 1907", "notes": "North-arrow rotation + nominal scale, position pinned to ICC1911 Paraiso dot-ring; +-200 m absolute. Shops strip along OLD PRR excluded (industrial)."}, "geometry": {"type": "Polygon", "coordinates": [[[-79.632814, 9.031736], [-79.631818, 9.033525], [-79.631281, 9.033425], [-79.630882, 9.033141], [-79.63015, 9.032781], [-79.630465, 9.031886], [-79.631027, 9.031274], [-79.631603, 9.031209], [-79.632344, 9.031332], [-79.632786, 9.031513], [-79.632814, 9.031736]]]}}, {"type": "Feature", "properties": {"place_id": "CZ-120", "source": "Culebra Div. encampment plans, June 1907 (sheet 11 'Empire-Sabana') - 'Base Ball Grounds' enclosure as drawn, Grand Stand at NW corner"}, "geometry": {"type": "Polygon", "coordinates": [[[-79.672012, 9.060642], [-79.671849, 9.060634], [-79.67184, 9.060603], [-79.671296, 9.060579], [-79.671316, 9.059928], [-79.671488, 9.05976], [-79.672233, 9.05971], [-79.672284, 9.060234], [-79.672251, 9.060402], [-79.672012, 9.060642]]]}}, {"type": "Feature", "properties": {"place_id": "CZ-152", "source": "Culebra Div. encampment plans, June 1907 (sheet 21 'P.Miguel') - rows labeled LABOR CAMP between the Old P.R.R. and the road, numbered quarters 44-61"}, "geometry": {"type": "Polygon", "coordinates": [[[-79.614742, 9.020015], [-79.613825, 9.019908], [-79.612815, 9.019876], [-79.612766, 9.019762], [-79.612766, 9.019541], [-79.613435, 9.019557], [-79.613812, 9.019575], [-79.614189, 9.019642], [-79.614512, 9.019762], [-79.614715, 9.019855], [-79.614742, 9.020015]]]}}, {"type": "Feature", "properties": {"place_id": "CZ-150", "source": "Culebra Div. encampment plans, June 1907 (sheet 19 'Paraiso') - French-era shops complex: Storehouse, Machine Shop, Boiler+Blacksmith Shop, Carpenter Shop, Iron Rack, lavatory"}, "geometry": {"type": "Polygon", "coordinates": [[[-79.628187, 9.02924], [-79.627708, 9.029122], [-79.627241, 9.029027], [-79.627217, 9.028826], [-79.627301, 9.028566], [-79.627433, 9.028424], [-79.6276, 9.028436], [-79.627828, 9.028601], [-79.628031, 9.028755], [-79.628067, 9.028897], [-79.628211, 9.029027], [-79.628187, 9.02924]]]}}, {"type": "Feature", "properties": {"place_id": "CZ-061", "source": "ICC Surveys 1905-06 Map No.1 (audit trace 2026-09-13)", "notes": "village cluster W of Pena Blanca label"}, "geometry": {"type": "Polygon", "coordinates": [[[-79.873788, 9.181982], [-79.87212, 9.181982], [-79.872044, 9.18108], [-79.872878, 9.18093], [-79.873788, 9.181155], [-79.873788, 9.181982]]]}}, {"type": "Feature", "properties": {"place_id": "CZ-017", "source": "ICC Surveys 1905-06 Map No.1 (audit trace 2026-09-13)", "notes": "Cristobal built blocks + wharf zone (Colon plat excluded)"}, "geometry": {"type": "Polygon", "coordinates": [[[-79.912071, 9.356321], [-79.910903, 9.358215], [-79.90931, 9.35811], [-79.906973, 9.357794], [-79.905061, 9.356531], [-79.902724, 9.355269], [-79.902512, 9.353585], [-79.904211, 9.352953], [-79.906336, 9.353374], [-79.90846, 9.353585], [-79.910159, 9.354637], [-79.911753, 9.355479], [-79.912071, 9.356321]]]}}, {"type": "Feature", "properties": {"place_id": "CZ-040", "source": "ICC Surveys 1905-06 Map No.1 (audit trace 2026-09-13)", "notes": "storehouse + structures along line; cemetery ground E excluded"}, "geometry": {"type": "Polygon", "coordinates": [[[-79.902869, 9.342763], [-79.901352, 9.342688], [-79.9012, 9.340508], [-79.901048, 9.339004], [-79.901579, 9.338854], [-79.901807, 9.340357], [-79.902793, 9.342237], [-79.902869, 9.342763]]]}}, {"type": "Feature", "properties": {"place_id": "CZ-001", "source": "ICC Surveys 1905-06 Map No.2 (audit trace 2026-09-13)", "notes": "village + ordered ICC camp grid in prism"}, "geometry": {"type": "Polygon", "coordinates": [[[-79.709563, 9.109605], [-79.706606, 9.112145], [-79.702959, 9.112048], [-79.702171, 9.110191], [-79.705029, 9.109702], [-79.707788, 9.108627], [-79.709365, 9.108823], [-79.709563, 9.109605]]]}}, {"type": "Feature", "properties": {"place_id": "CZ-014", "source": "ICC Surveys 1905-06 Map No.2 (audit trace 2026-09-13)", "notes": "Bas Obispo village extent"}, "geometry": {"type": "Polygon", "coordinates": [[[-79.697006, 9.106688], [-79.691335, 9.107019], [-79.691502, 9.105696], [-79.69317, 9.102388], [-79.691836, 9.099742], [-79.692003, 9.098667], [-79.694505, 9.098585], [-79.696006, 9.103381], [-79.697006, 9.106688]]]}}, {"type": "Feature", "properties": {"place_id": "CZ-015", "source": "ICC Surveys 1905-06 Map No.2 (audit trace 2026-09-13)", "notes": "Las Cascadas village rows W of prism"}, "geometry": {"type": "Polygon", "coordinates": [[[-79.687202, 9.087975], [-79.682865, 9.087892], [-79.682699, 9.086569], [-79.683866, 9.084585], [-79.681865, 9.083427], [-79.680447, 9.082931], [-79.680447, 9.080533], [-79.681448, 9.080533], [-79.683032, 9.083592], [-79.685367, 9.084585], [-79.686868, 9.086073], [-79.687202, 9.087975]]]}}, {"type": "Feature", "properties": {"place_id": "CZ-026", "source": "ICC Surveys 1905-06 Map No.2 (audit trace 2026-09-13)", "notes": "TAVERNILLA yard + rows + E hamlet"}, "geometry": {"type": "Polygon", "coordinates": [[[-79.811466, 9.132777], [-79.810131, 9.13195], [-79.808296, 9.130131], [-79.807295, 9.129304], [-79.806128, 9.129138], [-79.806128, 9.126327], [-79.807295, 9.126327], [-79.80813, 9.128229], [-79.809631, 9.128808], [-79.811132, 9.130296], [-79.811632, 9.131785], [-79.811466, 9.132777]]]}}, {"type": "Feature", "properties": {"place_id": "CZ-034", "source": "ICC Surveys 1905-06 Map No.2 (audit trace 2026-09-13)", "notes": "station-side hamlet row"}, "geometry": {"type": "Polygon", "coordinates": [[[-79.761813, 9.118462], [-79.7606, 9.118462], [-79.7606, 9.118041], [-79.760721, 9.11768], [-79.760843, 9.117018], [-79.76157, 9.117018], [-79.761631, 9.117559], [-79.761813, 9.118041], [-79.761813, 9.118462]]]}}, {"type": "Feature", "properties": {"place_id": "CZ-081", "source": "ICC Surveys 1905-06 Map No.2 (audit trace 2026-09-13)", "notes": "Caballo Viejo buildings 1905-06"}, "geometry": {"type": "Polygon", "coordinates": [[[-79.734826, 9.116981], [-79.732278, 9.117162], [-79.732218, 9.116801], [-79.733795, 9.1165], [-79.734765, 9.11656], [-79.734826, 9.116981]]]}}, {"type": "Feature", "properties": {"place_id": "CZ-011", "source": "ICC Surveys 1905-06 Map No.3 (audit trace 2026-09-13) [Pacific re-anchor 2026-09-14]", "notes": "Empire town grid 1905-06 (shops + ballpark excluded - own footprints)"}, "geometry": {"type": "Polygon", "coordinates": [[[-79.670788, 9.06632], [-79.668894, 9.065971], [-79.666717, 9.063667], [-79.667228, 9.061888], [-79.668978, 9.061791], [-79.670581, 9.060939], [-79.672797, 9.060996], [-79.673011, 9.062123], [-79.671496, 9.062758], [-79.670839, 9.063935], [-79.670788, 9.06632]]]}}, {"type": "Feature", "properties": {"place_id": "CZ-013", "source": "ICC Surveys 1905-06 Map No.3 (audit trace 2026-09-13) [Pacific re-anchor 2026-09-14]", "notes": "Culebra rim town 1905-06"}, "geometry": {"type": "Polygon", "coordinates": [[[-79.658444, 9.053644], [-79.656355, 9.054017], [-79.654948, 9.0517], [-79.654335, 9.049866], [-79.652733, 9.049651], [-79.652436, 9.048129], [-79.652783, 9.046482], [-79.653752, 9.04622], [-79.655023, 9.047025], [-79.655958, 9.048723], [-79.657381, 9.049986], [-79.658153, 9.051825], [-79.658444, 9.053644]]]}}, {"type": "Feature", "properties": {"place_id": "CZ-058", "source": "ICC Surveys 1905-06 Map No.3 (audit trace 2026-09-13) [Pacific re-anchor 2026-09-14]", "notes": "Enterprise grids 1905-06"}, "geometry": {"type": "Polygon", "coordinates": [[[-79.652866, 9.046334], [-79.651022, 9.046108], [-79.649751, 9.045148], [-79.649851, 9.043943], [-79.651704, 9.043718], [-79.652656, 9.044513], [-79.652866, 9.046334]]]}}, {"type": "Feature", "properties": {"place_id": "CZ-029", "source": "ICC Surveys 1905-06 Map No.3 (audit trace 2026-09-13) [Pacific re-anchor 2026-09-14]", "notes": "Cucaracha slope hamlet 1905-06"}, "geometry": {"type": "Polygon", "coordinates": [[[-79.640923, 9.041583], [-79.640273, 9.041485], [-79.637987, 9.039135], [-79.636839, 9.038264], [-79.636924, 9.037587], [-79.637862, 9.037971], [-79.63894, 9.038633], [-79.640878, 9.040016], [-79.641003, 9.041247], [-79.640923, 9.041583]]]}}, {"type": "Feature", "properties": {"place_id": "CZ-062", "source": "ICC Surveys 1905-06 Map No.3 (audit trace 2026-09-13) [Pacific re-anchor 2026-09-14]", "notes": "Cartagenita diamond-grid village 1905-06"}, "geometry": {"type": "Polygon", "coordinates": [[[-79.632009, 9.027922], [-79.630589, 9.027793], [-79.629755, 9.027389], [-79.62984, 9.026485], [-79.630681, 9.026465], [-79.631771, 9.026942], [-79.632024, 9.027257], [-79.632009, 9.027922]]]}}, {"type": "Feature", "properties": {"place_id": "CZ-020", "source": "ICC Surveys 1905-06 Map No.3 (audit trace 2026-09-13) [Pacific re-anchor 2026-09-14]", "notes": "Pedro Miguel pre-lock village 1905-06"}, "geometry": {"type": "Polygon", "coordinates": [[[-79.614475, 9.022068], [-79.6117, 9.022675], [-79.609574, 9.022232], [-79.609965, 9.020754], [-79.61108, 9.018895], [-79.613212, 9.019089], [-79.614455, 9.019235], [-79.614678, 9.020995], [-79.614475, 9.022068]]]}}, {"type": "Feature", "properties": {"place_id": "CZ-022", "source": "ICC Surveys 1905-06 Map No.3 (audit trace 2026-09-13) [Pacific re-anchor 2026-09-14]", "notes": "Corozal station + grid 1905-06"}, "geometry": {"type": "Polygon", "coordinates": [[[-79.573462, 8.98262], [-79.571552, 8.982514], [-79.571583, 8.982109], [-79.572299, 8.981133], [-79.573502, 8.981201], [-79.573462, 8.98262]]]}}, {"type": "Feature", "properties": {"place_id": "CZ-021", "source": "ICC Surveys 1905-06 Map No.3 (audit trace 2026-09-13) [Pacific re-anchor 2026-09-14]", "notes": "East La Boca slope rows 1905-06"}, "geometry": {"type": "Polygon", "coordinates": [[[-79.562176, 8.954812], [-79.5595, 8.955485], [-79.559463, 8.955054], [-79.560557, 8.952738], [-79.561972, 8.952793], [-79.562651, 8.95397], [-79.562176, 8.954812]]]}}, {"type": "Feature", "properties": {"place_id": "CZ-018", "source": "ICC Surveys 1905-06 Map No.3 (audit trace 2026-09-13) [Pacific re-anchor 2026-09-14]", "notes": "Ancon hospital-slope + Tivoli belt 1905-06 (cemeteries excluded - unregistered)"}, "geometry": {"type": "Polygon", "coordinates": [[[-79.55689, 8.962462], [-79.552936, 8.964625], [-79.546101, 8.964804], [-79.543976, 8.964562], [-79.54435, 8.961543], [-79.545276, 8.959108], [-79.54701, 8.959024], [-79.549341, 8.959896], [-79.552037, 8.960668], [-79.554808, 8.960772], [-79.556542, 8.961645], [-79.55689, 8.962462]]]}}, {"type": "Feature", "properties": {"place_id": "CZ-080", "source": "ICC Surveys 1905-06 Map No.3 (audit trace 2026-09-13) [Pacific re-anchor 2026-09-14]", "notes": "Lirio quarters 1905-06 (3rd position claim - see attestation notes)"}, "geometry": {"type": "Polygon", "coordinates": [[[-79.665954, 9.064698], [-79.664365, 9.064587], [-79.664389, 9.063272], [-79.665345, 9.063243], [-79.665972, 9.063801], [-79.665954, 9.064698]]]}}, {"type": "Feature", "properties": {"place_id": "CZ-024", "source": "ICC Surveys 1905-06 Map No.3 (audit trace 2026-09-13) [Pacific re-anchor 2026-09-14]", "notes": "Paraiso village 1905-06 (shops complex excluded - CZ-150)"}, "geometry": {"type": "Polygon", "coordinates": [[[-79.631961, 9.034537], [-79.630562, 9.035356], [-79.628821, 9.035067], [-79.628698, 9.033835], [-79.626678, 9.032783], [-79.626631, 9.031485], [-79.628305, 9.031499], [-79.630033, 9.032537], [-79.631848, 9.03276], [-79.631961, 9.034537]]]}}, {"type": "Feature", "properties": {"place_id": "CZ-010", "source": "ICC1911 property map (audit trace 2026-09-13)", "notes": "New Gatun town blocks 4a/4b as hatched on the property map"}, "geometry": {"type": "Polygon", "coordinates": [[[-79.917989, 9.276686], [-79.914781, 9.27628], [-79.914235, 9.27513], [-79.914508, 9.272829], [-79.916146, 9.272559], [-79.916692, 9.271815], [-79.919013, 9.271882], [-79.919082, 9.273506], [-79.917921, 9.273912], [-79.917989, 9.276686]]]}}, {"type": "Feature", "properties": {"place_id": "CZ-110", "source": "ICC1911 property map (audit trace 2026-09-13)", "notes": "Spanish Town fenced enclosure + dot cluster"}, "geometry": {"type": "Polygon", "coordinates": [[[-79.625075, 9.034073], [-79.623431, 9.03402], [-79.623006, 9.033389], [-79.623165, 9.032231], [-79.622688, 9.029916], [-79.621839, 9.028021], [-79.621945, 9.027074], [-79.623324, 9.026548], [-79.624704, 9.027074], [-79.625765, 9.0276], [-79.626508, 9.028863], [-79.626879, 9.029916], [-79.626614, 9.031494], [-79.62603, 9.033073], [-79.625075, 9.034073]]]}}, {"type": "Feature", "properties": {"place_id": "CZ-052", "source": "ICC1911 property map (audit trace 2026-09-13)", "notes": "Camacho dot clusters along road"}, "geometry": {"type": "Polygon", "coordinates": [[[-79.666172, 9.054236], [-79.664466, 9.054033], [-79.664398, 9.05092], [-79.666104, 9.051056], [-79.666172, 9.054236]]]}}, {"type": "Feature", "properties": {"place_id": "CZ-111", "source": "ICC1911 property map (audit trace 2026-09-13)", "notes": "Golden Green dot cluster"}, "geometry": {"type": "Polygon", "coordinates": [[[-79.662966, 9.05613], [-79.661737, 9.055995], [-79.661737, 9.055183], [-79.662897, 9.055251], [-79.662966, 9.05613]]]}}, {"type": "Feature", "properties": {"place_id": "CZ-081", "source": "GORPAN1895 sheet 1 (re-anchored 2026-09-14) (audit trace 2026-09-13)", "notes": "Campement de Caballo Viejo (French camp)"}, "geometry": {"type": "Polygon", "coordinates": [[[-79.734135, 9.11688], [-79.730819, 9.117282], [-79.730741, 9.116724], [-79.731856, 9.116196], [-79.733993, 9.116261], [-79.734135, 9.11688]]]}}, {"type": "Feature", "properties": {"place_id": "CZ-044", "source": "GORPAN1895 sheet 1 (re-anchored 2026-09-14) (audit trace 2026-09-13)", "notes": "Juan Grande village + camp 1895"}, "geometry": {"type": "Polygon", "coordinates": [[[-79.740872, 9.117568], [-79.740143, 9.118397], [-79.739004, 9.118117], [-79.73787, 9.117962], [-79.737717, 9.116969], [-79.73865, 9.116694], [-79.739973, 9.116845], [-79.740797, 9.117135], [-79.740872, 9.117568]]]}}, {"type": "Feature", "properties": {"place_id": "CZ-027", "source": "GORPAN1895 sheet 1 (re-anchored 2026-09-14) (audit trace 2026-09-13)", "notes": "Gamboa buildings + enclosure 1895"}, "geometry": {"type": "Polygon", "coordinates": [[[-79.694434, 9.114786], [-79.693485, 9.114757], [-79.693409, 9.11404], [-79.693675, 9.11359], [-79.694234, 9.11363], [-79.694419, 9.114234], [-79.694434, 9.114786]]]}}, {"type": "Feature", "properties": {"place_id": "CZ-135", "label": "Y.M.C.A. Club House - main hall + rear wing, as drawn", "source": "Culebra Div. encampment plans, sheet 014 'CULEBRA' (LOC 83694727, 1:1000, June 1907) - building outline as drawn; georef +-100-200 m absolute"}, "geometry": {"type": "Polygon", "coordinates": [[[-79.656044, 9.049534], [-79.655933, 9.049602], [-79.655874, 9.049517], [-79.655814, 9.049558], [-79.655843, 9.049599], [-79.655784, 9.049645], [-79.655646, 9.049448], [-79.655705, 9.049403], [-79.655766, 9.049362], [-79.655745, 9.049331], [-79.655855, 9.049264], [-79.656044, 9.049534]]]}}, {"type": "Feature", "properties": {"place_id": "CZ-136", "label": "Culebra Hotel - main block, as drawn", "source": "Culebra Div. encampment plans, sheet 014 'CULEBRA' (LOC 83694727, 1:1000, June 1907) - building outline as drawn; georef +-100-200 m absolute"}, "geometry": {"type": "Polygon", "coordinates": [[[-79.655145, 9.048518], [-79.655001, 9.048354], [-79.655166, 9.048236], [-79.655303, 9.0484], [-79.655145, 9.048518]]]}}, {"type": "Feature", "properties": {"place_id": "CZ-137", "label": "Post Office (bldg 3), as drawn", "source": "Culebra Div. encampment plans, sheet 014 'CULEBRA' (LOC 83694727, 1:1000, June 1907) - building outline as drawn; georef +-100-200 m absolute"}, "geometry": {"type": "Polygon", "coordinates": [[[-79.654472, 9.048968], [-79.654388, 9.048826], [-79.654519, 9.048749], [-79.654603, 9.048892], [-79.654472, 9.048968]]]}}, {"type": "Feature", "properties": {"place_id": "CZ-138", "label": "Church & Lodge Hall, as drawn", "source": "Culebra Div. encampment plans, sheet 014 'CULEBRA' (LOC 83694727, 1:1000, June 1907) - building outline as drawn; georef +-100-200 m absolute"}, "geometry": {"type": "Polygon", "coordinates": [[[-79.65485, 9.04831], [-79.654724, 9.048121], [-79.654792, 9.048053], [-79.654919, 9.048241], [-79.65485, 9.04831]]]}}, {"type": "Feature", "properties": {"place_id": "CZ-139", "label": "Colored School (bldg 73), as drawn", "source": "Culebra Div. encampment plans, sheet 014 'CULEBRA' (LOC 83694727, 1:1000, June 1907) - building outline as drawn; georef +-100-200 m absolute"}, "geometry": {"type": "Polygon", "coordinates": [[[-79.655358, 9.050149], [-79.655266, 9.050003], [-79.655353, 9.049939], [-79.655446, 9.050088], [-79.655358, 9.050149]]]}}, {"type": "Feature", "properties": {"place_id": "CZ-140", "label": "Commissary (bldg 69), as drawn", "source": "Culebra Div. encampment plans, sheet 014 'CULEBRA' (LOC 83694727, 1:1000, June 1907) - building outline as drawn; georef +-100-200 m absolute"}, "geometry": {"type": "Polygon", "coordinates": [[[-79.655123, 9.0499], [-79.655018, 9.049952], [-79.654935, 9.049805], [-79.65504, 9.049756], [-79.655123, 9.0499]]]}}, {"type": "Feature", "properties": {"place_id": "CZ-141", "label": "Fire Department, as drawn", "source": "Culebra Div. encampment plans, sheet 014 'CULEBRA' (LOC 83694727, 1:1000, June 1907) - building outline as drawn; georef +-100-200 m absolute"}, "geometry": {"type": "Polygon", "coordinates": [[[-79.655456, 9.049385], [-79.655388, 9.049395], [-79.655362, 9.049247], [-79.65543, 9.049238], [-79.655456, 9.049385]]]}}, {"type": "Feature", "properties": {"place_id": "CZ-142", "label": "Dispensary (bldg 231), as drawn", "source": "Culebra Div. encampment plans, sheet 014 'CULEBRA' (LOC 83694727, 1:1000, June 1907) - building outline as drawn; georef +-100-200 m absolute"}, "geometry": {"type": "Polygon", "coordinates": [[[-79.65555, 9.048435], [-79.655499, 9.048317], [-79.655585, 9.048267], [-79.655639, 9.048383], [-79.65555, 9.048435]]]}}, {"type": "Feature", "properties": {"place_id": "CZ-143", "label": "Planing Mill (bldg 80), as drawn", "source": "Culebra Div. encampment plans, sheet 014 'CULEBRA' (LOC 83694727, 1:1000, June 1907) - building outline as drawn; georef +-100-200 m absolute"}, "geometry": {"type": "Polygon", "coordinates": [[[-79.654741, 9.04979], [-79.654582, 9.049597], [-79.654633, 9.04955], [-79.654784, 9.049763], [-79.654741, 9.04979]]]}}, {"type": "Feature", "properties": {"place_id": "CZ-144", "label": "Corral shed 302 (N shed), as drawn", "source": "Culebra Div. encampment plans, sheet 014 'CULEBRA' (LOC 83694727, 1:1000, June 1907) - building outline as drawn; georef +-100-200 m absolute"}, "geometry": {"type": "Polygon", "coordinates": [[[-79.656381, 9.047585], [-79.656066, 9.047507], [-79.656082, 9.047435], [-79.6564, 9.047521], [-79.656381, 9.047585]]]}}, {"type": "Feature", "properties": {"place_id": "CZ-144", "label": "Corral shed (S shed), as drawn", "source": "Culebra Div. encampment plans, sheet 014 'CULEBRA' (LOC 83694727, 1:1000, June 1907) - building outline as drawn; georef +-100-200 m absolute"}, "geometry": {"type": "Polygon", "coordinates": [[[-79.656514, 9.047505], [-79.6561, 9.047403], [-79.656115, 9.047336], [-79.656529, 9.047438], [-79.656514, 9.047505]]]}}, {"type": "Feature", "properties": {"place_id": "CZ-145", "label": "Lumber Mill - main shed, as drawn", "source": "Culebra Div. encampment plans, sheet 013 'Culebra on Dump' (LOC 83694727, 1:1000, June 1907) - building outline as drawn; georef +-100-200 m absolute"}, "geometry": {"type": "Polygon", "coordinates": [[[-79.65868, 9.052266], [-79.658648, 9.052294], [-79.658628, 9.052305], [-79.658583, 9.052282], [-79.658331, 9.051729], [-79.658435, 9.051658], [-79.65868, 9.052266]]]}}, {"type": "Feature", "properties": {"place_id": "CZ-145", "label": "Planing Mill Storehouse (adjacent shed of the industrial yard), as drawn", "source": "Culebra Div. encampment plans, sheet 013 'Culebra on Dump' (LOC 83694727, 1:1000, June 1907) - building outline as drawn; georef +-100-200 m absolute"}, "geometry": {"type": "Polygon", "coordinates": [[[-79.65878, 9.05219], [-79.65873, 9.052211], [-79.65856, 9.051773], [-79.65861, 9.051746], [-79.65878, 9.05219]]]}}, {"type": "Feature", "properties": {"place_id": "CZ-146", "label": "PRR Depot - main building, as drawn (SE platform wing not traced)", "source": "Culebra Div. encampment plans, sheet 013 'Culebra on Dump' (LOC 83694727, 1:1000, June 1907) - building outline as drawn; georef +-100-200 m absolute"}, "geometry": {"type": "Polygon", "coordinates": [[[-79.65507, 9.049113], [-79.654968, 9.049143], [-79.654922, 9.048968], [-79.655023, 9.048938], [-79.65507, 9.049113]]]}}, {"type": "Feature", "properties": {"place_id": "CZ-147", "label": "Magazine (explosives) - band with W porch and E annex, as drawn", "source": "Culebra Div. encampment plans, sheet 013 'Culebra on Dump' (LOC 83694727, 1:1000, June 1907) - building outline as drawn; georef +-100-200 m absolute"}, "geometry": {"type": "Polygon", "coordinates": [[[-79.654772, 9.049735], [-79.654488, 9.049629], [-79.654481, 9.049584], [-79.654453, 9.049524], [-79.654472, 9.049501], [-79.654503, 9.049542], [-79.65474, 9.049611], [-79.654754, 9.049653], [-79.654844, 9.049646], [-79.654853, 9.049679], [-79.654799, 9.04969], [-79.654761, 9.049692], [-79.654772, 9.049735]]]}}, {"type": "Feature", "properties": {"place_id": "CZ-148", "label": "Engine House - long band, as drawn", "source": "Culebra Div. encampment plans, sheet 006 'LAS CASCADAS' (LOC 83694727, 1:1000, June 1907) - building outline as drawn; georef +-100-200 m absolute"}, "geometry": {"type": "Polygon", "coordinates": [[[-79.681097, 9.086178], [-79.680763, 9.085448], [-79.680989, 9.085334], [-79.681324, 9.086063], [-79.681097, 9.086178]]]}}, {"type": "Feature", "properties": {"place_id": "CZ-149", "label": "Post Office (bldg 160 adjacent), as drawn", "source": "Culebra Div. encampment plans, sheet 006 'LAS CASCADAS' (LOC 83694727, 1:1000, June 1907) - building outline as drawn; georef +-100-200 m absolute"}, "geometry": {"type": "Polygon", "coordinates": [[[-79.681625, 9.08553], [-79.681535, 9.085556], [-79.68151, 9.085475], [-79.681594, 9.085445], [-79.681625, 9.08553]]]}}, {"type": "Feature", "properties": {"place_id": "CZ-151", "label": "Paraiso Hotel (bldg 123), as drawn", "source": "Culebra Div. encampment plans, sheet 019 'PARAISO' (LOC 83694727, 1:1000, June 1907) - building outline as drawn; georef +-100-200 m absolute"}, "geometry": {"type": "Polygon", "coordinates": [[[-79.630312, 9.030664], [-79.630106, 9.030559], [-79.6302, 9.0304], [-79.630407, 9.030506], [-79.630312, 9.030664]]]}}, {"type": "Feature", "properties": {"place_id": "CZ-154", "label": "Police Station (bldg 21, labeled 'Police Sta.'), as drawn - NOTE: the building as drawn sits ~135 m W of the 2026-09-13 stored coordinate", "source": "Culebra Div. encampment plans, sheet 019 'PARAISO' (LOC 83694727, 1:1000, June 1907) - building outline as drawn; georef +-100-200 m absolute"}, "geometry": {"type": "Polygon", "coordinates": [[[-79.628722, 9.030126], [-79.628434, 9.029991], [-79.628457, 9.029947], [-79.628743, 9.030081], [-79.628722, 9.030126]]]}}, {"type": "Feature", "properties": {"place_id": "CZ-153", "label": "Shops complex extent (Masonry / Plating Mill / Painting-Building-Plumbing band / Engine House), labels faint - extent, not a single building", "source": "Culebra Div. encampment plans, sheet 021 'P.MIGUEL' (LOC 83694727, 1:1000, June 1907) - complex extent as drawn; labels partially legible; georef +-100-200 m"}, "geometry": {"type": "Polygon", "coordinates": [[[-79.608827, 9.018018], [-79.608527, 9.017856], [-79.608449, 9.017829], [-79.608342, 9.017759], [-79.608213, 9.017611], [-79.608231, 9.017558], [-79.608516, 9.017259], [-79.608626, 9.017272], [-79.60874, 9.017436], [-79.608911, 9.0179], [-79.608827, 9.018018]]]}}, {"type": "Feature", "properties": {"place_id": "CZ-130", "label": "Market, as drawn", "source": "Map of Gorgona, saloon licensing, 1:2000, Dec 1908 (pcc00017) - building outline as drawn; georef +-100 m"}, "geometry": {"type": "Polygon", "coordinates": [[[-79.724862, 9.116376], [-79.724574, 9.116376], [-79.724574, 9.116232], [-79.724862, 9.116232], [-79.724862, 9.116376]]]}}, {"type": "Feature", "properties": {"place_id": "CZ-131", "label": "Y.M.C.A. - E-shaped building, as drawn (simplified outline)", "source": "Map of Gorgona, saloon licensing, 1:2000, Dec 1908 (pcc00017) - building outline as drawn; georef +-100 m"}, "geometry": {"type": "Polygon", "coordinates": [[[-79.723855, 9.114639], [-79.72377, 9.114672], [-79.723599, 9.114677], [-79.723594, 9.114627], [-79.723561, 9.114633], [-79.723548, 9.114582], [-79.723579, 9.114575], [-79.723562, 9.1145], [-79.723847, 9.114444], [-79.723864, 9.114523], [-79.723833, 9.114531], [-79.723852, 9.114587], [-79.723855, 9.114639]]]}}, {"type": "Feature", "properties": {"place_id": "CZ-132", "label": "Band Stand (drawn as a circle; octagon approximation)", "source": "Map of Gorgona, saloon licensing, 1:2000, Dec 1908 (pcc00017) - drawn circle approximated; georef +-100 m"}, "geometry": {"type": "Polygon", "coordinates": [[[-79.72425, 9.11599], [-79.724263, 9.115961], [-79.724292, 9.115949], [-79.724321, 9.115961], [-79.724334, 9.11599], [-79.724321, 9.116019], [-79.724292, 9.116031], [-79.724263, 9.116019], [-79.72425, 9.11599]]]}}, {"type": "Feature", "properties": {"place_id": "CZ-133", "label": "I.C.C. Hotel - tower + rear band, as drawn", "source": "Map of Gorgona, saloon licensing, 1:2000, Dec 1908 (pcc00017) - building outline as drawn; georef +-100 m"}, "geometry": {"type": "Polygon", "coordinates": [[[-79.724566, 9.113931], [-79.724457, 9.113934], [-79.724457, 9.11369], [-79.724403, 9.11369], [-79.724403, 9.1135], [-79.724666, 9.1135], [-79.724666, 9.113687], [-79.724566, 9.113687], [-79.724566, 9.113931]]]}}, {"type": "Feature", "properties": {"place_id": "CZ-134", "label": "Hotel (private), as drawn", "source": "Map of Gorgona, saloon licensing, 1:2000, Dec 1908 (pcc00017) - building outline as drawn; georef +-100 m"}, "geometry": {"type": "Polygon", "coordinates": [[[-79.725069, 9.116807], [-79.724969, 9.116698], [-79.725053, 9.116588], [-79.725154, 9.116695], [-79.725069, 9.116807]]]}}, {"type": "Feature", "properties": {"place_id": "CZ-118", "label": "Court House, labeled, as drawn", "source": "General map of Empire c.1909 (pcc00020, ~1:1000) - building outline as drawn on the 2026-09-13 corrected re-warp (previous EMPIRE.tif was mirror-flipped); absolute position +-200 m (Map No.3 arbitration)"}, "geometry": {"type": "Polygon", "coordinates": [[[-79.672144, 9.061828], [-79.672002, 9.0617], [-79.672143, 9.061594], [-79.6723, 9.061712], [-79.672144, 9.061828]]]}}, {"type": "Feature", "properties": {"place_id": "CZ-119", "label": "Freight House area building among yard tracks, as drawn", "source": "General map of Empire c.1909 (pcc00020, ~1:1000) - building outline as drawn on the 2026-09-13 corrected re-warp (previous EMPIRE.tif was mirror-flipped); absolute position +-200 m (Map No.3 arbitration)"}, "geometry": {"type": "Polygon", "coordinates": [[[-79.671142, 9.062512], [-79.671028, 9.062419], [-79.671091, 9.062346], [-79.671211, 9.062442], [-79.671142, 9.062512]]]}}, {"type": "Feature", "properties": {"place_id": "CZ-121", "label": "I.C.C. Hotel, labeled, as drawn", "source": "General map of Empire c.1909 (pcc00020, ~1:1000) - building outline as drawn on the 2026-09-13 corrected re-warp (previous EMPIRE.tif was mirror-flipped); absolute position +-200 m (Map No.3 arbitration)"}, "geometry": {"type": "Polygon", "coordinates": [[[-79.670014, 9.062219], [-79.669844, 9.062062], [-79.669992, 9.061926], [-79.67016, 9.062077], [-79.670014, 9.062219]]]}}, {"type": "Feature", "properties": {"place_id": "CZ-122", "label": "Police Station, labeled, as drawn (with S foot annex)", "source": "General map of Empire c.1909 (pcc00020, ~1:1000) - building outline as drawn on the 2026-09-13 corrected re-warp (previous EMPIRE.tif was mirror-flipped); absolute position +-200 m (Map No.3 arbitration)"}, "geometry": {"type": "Polygon", "coordinates": [[[-79.672674, 9.063637], [-79.672415, 9.063543], [-79.672434, 9.063494], [-79.672585, 9.063496], [-79.672583, 9.063448], [-79.672633, 9.063447], [-79.672636, 9.063491], [-79.67269, 9.06351], [-79.672674, 9.063637]]]}}, {"type": "Feature", "properties": {"place_id": "CZ-123", "label": "Municipal Building, labeled, as drawn", "source": "General map of Empire c.1909 (pcc00020, ~1:1000) - building outline as drawn on the 2026-09-13 corrected re-warp (previous EMPIRE.tif was mirror-flipped); absolute position +-200 m (Map No.3 arbitration)"}, "geometry": {"type": "Polygon", "coordinates": [[[-79.673488, 9.063857], [-79.673341, 9.063728], [-79.673433, 9.063656], [-79.67357, 9.063806], [-79.673488, 9.063857]]]}}, {"type": "Feature", "properties": {"place_id": "CZ-125", "label": "Y.M.C.A. - main block + NE wing, as drawn (simplified outline)", "source": "General map of Empire c.1909 (pcc00020, ~1:1000) - building outline as drawn on the 2026-09-13 corrected re-warp (previous EMPIRE.tif was mirror-flipped); absolute position +-200 m (Map No.3 arbitration)"}, "geometry": {"type": "Polygon", "coordinates": [[[-79.672257, 9.062344], [-79.672186, 9.062274], [-79.672089, 9.062282], [-79.67208, 9.062196], [-79.672143, 9.06211], [-79.672311, 9.061971], [-79.672467, 9.06219], [-79.672257, 9.062344]]]}}, {"type": "Feature", "properties": {"place_id": "CZ-126", "label": "Fire Station, labeled, as drawn", "source": "General map of Empire c.1909 (pcc00020, ~1:1000) - building outline as drawn on the 2026-09-13 corrected re-warp (previous EMPIRE.tif was mirror-flipped); absolute position +-200 m (Map No.3 arbitration)"}, "geometry": {"type": "Polygon", "coordinates": [[[-79.671867, 9.062435], [-79.671808, 9.062444], [-79.671793, 9.062325], [-79.671859, 9.062314], [-79.671867, 9.062435]]]}}, {"type": "Feature", "properties": {"place_id": "CZ-127", "label": "Bank, labeled, as drawn", "source": "General map of Empire c.1909 (pcc00020, ~1:1000) - building outline as drawn on the 2026-09-13 corrected re-warp (previous EMPIRE.tif was mirror-flipped); absolute position +-200 m (Map No.3 arbitration)"}, "geometry": {"type": "Polygon", "coordinates": [[[-79.67195, 9.062016], [-79.671865, 9.061943], [-79.671935, 9.061881], [-79.672019, 9.061956], [-79.67195, 9.062016]]]}}, {"type": "Feature", "properties": {"place_id": "CZ-128", "label": "Post Office, labeled, as drawn", "source": "General map of Empire c.1909 (pcc00020, ~1:1000) - building outline as drawn on the 2026-09-13 corrected re-warp (previous EMPIRE.tif was mirror-flipped); absolute position +-200 m (Map No.3 arbitration)"}, "geometry": {"type": "Polygon", "coordinates": [[[-79.671685, 9.062219], [-79.671596, 9.06213], [-79.671678, 9.062059], [-79.671781, 9.062146], [-79.671685, 9.062219]]]}}, {"type": "Feature", "properties": {"place_id": "CZ-129", "label": "Dispensary - Greek-cross plan, labeled, as drawn", "source": "General map of Empire c.1909 (pcc00020, ~1:1000) - building outline as drawn on the 2026-09-13 corrected re-warp (previous EMPIRE.tif was mirror-flipped); absolute position +-200 m (Map No.3 arbitration)"}, "geometry": {"type": "Polygon", "coordinates": [[[-79.669836, 9.063215], [-79.66978, 9.063209], [-79.669783, 9.063171], [-79.669729, 9.063166], [-79.669718, 9.063139], [-79.669757, 9.063122], [-79.669752, 9.063081], [-79.669792, 9.063065], [-79.669809, 9.063092], [-79.669855, 9.063102], [-79.669867, 9.06313], [-79.669841, 9.063166], [-79.669836, 9.063215]]]}}, {"type": "Feature", "properties": {"place_id": "CZ-102", "label": "Commissary - long band with N annex, labeled, as drawn", "source": "General map of Empire c.1909 (pcc00020, ~1:1000) - building outline as drawn on the 2026-09-13 corrected re-warp (previous EMPIRE.tif was mirror-flipped); absolute position +-200 m (Map No.3 arbitration)"}, "geometry": {"type": "Polygon", "coordinates": [[[-79.671696, 9.062497], [-79.671636, 9.062433], [-79.671322, 9.062605], [-79.671334, 9.062663], [-79.671488, 9.062655], [-79.671496, 9.062739], [-79.671553, 9.062739], [-79.671553, 9.062686], [-79.671665, 9.062533], [-79.671696, 9.062497]]]}}, {"type": "Feature", "properties": {"place_id": "CZ-109", "label": "School House (colored) - Greek-cross plan, labeled, as drawn", "source": "General map of Empire c.1909 (pcc00020, ~1:1000) - building outline as drawn on the 2026-09-13 corrected re-warp (previous EMPIRE.tif was mirror-flipped); absolute position +-200 m (Map No.3 arbitration)"}, "geometry": {"type": "Polygon", "coordinates": [[[-79.674754, 9.063405], [-79.674686, 9.063414], [-79.674673, 9.063366], [-79.674636, 9.063342], [-79.674623, 9.063312], [-79.67466, 9.06329], [-79.674672, 9.063233], [-79.674732, 9.063207], [-79.67475, 9.063255], [-79.674847, 9.063269], [-79.674873, 9.063301], [-79.67481, 9.063341], [-79.674754, 9.063405]]]}}, {"type": "Feature", "properties": {"place_id": "CZ-120", "label": "Grand Stand, labeled, as drawn (grandstand of the Base Ball Park)", "source": "General map of Empire c.1909 (pcc00020, ~1:1000) - building outline as drawn on the 2026-09-13 corrected re-warp (previous EMPIRE.tif was mirror-flipped); absolute position +-200 m (Map No.3 arbitration)"}, "geometry": {"type": "Polygon", "coordinates": [[[-79.672151, 9.060749], [-79.672102, 9.060697], [-79.672323, 9.060508], [-79.672376, 9.060562], [-79.672151, 9.060749]]]}}, {"type": "Feature", "properties": {"place_id": "CZ-124", "label": "RR shops complex extent (Machine/Boiler/Blacksmith Shops, Erecting Shed, Transfer Table) - re-traced on the corrected warp, replaces the mirrored 2026-09-13 trace", "source": "General map of Empire c.1909 (pcc00020, ~1:1000) - building outline as drawn on the 2026-09-13 corrected re-warp (previous EMPIRE.tif was mirror-flipped); absolute position +-200 m (Map No.3 arbitration)"}, "geometry": {"type": "Polygon", "coordinates": [[[-79.672197, 9.065018], [-79.671917, 9.065422], [-79.671338, 9.065792], [-79.671021, 9.065767], [-79.671004, 9.065669], [-79.671129, 9.064779], [-79.671154, 9.064697], [-79.67181, 9.064466], [-79.672189, 9.064919], [-79.672197, 9.065018]]]}}, {"type": "Feature", "properties": {"place_id": "CZ-039", "source": "Canal Zone and Vicinity 1947 (audit trace 2026-09-13)", "notes": "Balboa townsite lobe of the contiguous Pacific built-up area, re-traced 2026-09-14 after audit (previous ring followed no drawn boundary): bounded W by the road/RR corridor, E by Ancon Hill's white flank, S at the La Boca neck; the Sosa Hill 370-summit pocket falls inside (hill-flank looseness as on the Ancon trace). The BALBOA label sits ~1 km W over the harbor flats - label-position vs built-extent gap, as on the other 1947 military reads. N apex tightened 2026-09-14 per the independent re-audit's remark: the ring now starts at the corridor cut on the drawn yellow boundary instead of reaching the tan road junction."}, "geometry": {"type": "Polygon", "coordinates": [[[-79.556654, 8.964858], [-79.555277, 8.961759], [-79.555124, 8.960021], [-79.55696, 8.959265], [-79.556807, 8.957602], [-79.554894, 8.956846], [-79.555124, 8.953445], [-79.554129, 8.952311], [-79.553976, 8.949665], [-79.556042, 8.948683], [-79.558108, 8.94959], [-79.56025, 8.951177], [-79.563311, 8.953445], [-79.564689, 8.954578], [-79.564, 8.956846], [-79.563235, 8.958509], [-79.562623, 8.959869], [-79.561551, 8.96123], [-79.56048, 8.962515], [-79.559256, 8.963573], [-79.558108, 8.96448], [-79.556654, 8.964858]]]}}, {"type": "Feature", "properties": {"place_id": "CZ-018", "source": "Canal Zone and Vicinity 1947 (audit trace 2026-09-13)", "notes": "Ancon lobe, cut at the Panama City boundary dashes"}, "geometry": {"type": "Polygon", "coordinates": [[[-79.55736, 8.970555], [-79.549872, 8.967818], [-79.551843, 8.961173], [-79.554601, 8.957264], [-79.557754, 8.959218], [-79.55736, 8.965864], [-79.55736, 8.970555]]]}}, {"type": "Feature", "properties": {"place_id": "CZ-021", "source": "Canal Zone and Vicinity 1947 (audit trace 2026-09-13)", "notes": "La Boca lobe (1947 - name resumed, cf. A-0761)"}, "geometry": {"type": "Polygon", "coordinates": [[[-79.569576, 8.950618], [-79.564059, 8.952573], [-79.556966, 8.950618], [-79.557754, 8.947491], [-79.564059, 8.946709], [-79.568985, 8.947882], [-79.569576, 8.950618]]]}}, {"type": "Feature", "properties": {"place_id": "CZ-070", "source": "Canal Zone and Vicinity 1947 (audit trace 2026-09-13)", "notes": "Fort Amador cantonment band"}, "geometry": {"type": "Polygon", "coordinates": [[[-79.560124, 8.943026], [-79.556122, 8.944349], [-79.54812, 8.943868], [-79.548484, 8.940259], [-79.549818, 8.93641], [-79.55103, 8.935448], [-79.55491, 8.938335], [-79.558547, 8.941222], [-79.560124, 8.943026]]]}}, {"type": "Feature", "properties": {"place_id": "CZ-067", "source": "Canal Zone and Vicinity 1947 (audit trace 2026-09-13)", "notes": "Fort Clayton cantonment"}, "geometry": {"type": "Polygon", "coordinates": [[[-79.593503, 9.007158], [-79.590668, 9.007985], [-79.585999, 9.007488], [-79.584665, 9.005338], [-79.585999, 9.002527], [-79.581497, 8.999385], [-79.580997, 8.996573], [-79.583164, 8.996408], [-79.586666, 8.999385], [-79.589501, 9.002362], [-79.593503, 9.005835], [-79.593503, 9.007158]]]}}, {"type": "Feature", "properties": {"place_id": "CZ-051", "source": "Canal Zone and Vicinity 1947 (audit trace 2026-09-13)", "notes": "Red Tank patch ~1.1 km W of the label-centred read - Low confidence attribution. Extended 2026-09-14 after audit to the FULL drawn patch (the W half along the railroad was outside the first trace; the separate larger patch further NW under the 'Pedro' label is Pedro Miguel's). E vertices tightened to the drawn edge 2026-09-14 per the independent re-audit's remark."}, "geometry": {"type": "Polygon", "coordinates": [[[-79.609729, 9.017964], [-79.609117, 9.019098], [-79.606821, 9.019702], [-79.603378, 9.018115], [-79.602536, 9.016377], [-79.607357, 9.016906], [-79.609729, 9.017964]]]}}, {"type": "Feature", "properties": {"place_id": "CZ-024", "source": "Canal Zone and Vicinity 1947 (audit trace 2026-09-13)", "notes": "Paraiso triangle W of RR"}, "geometry": {"type": "Polygon", "coordinates": [[[-79.628883, 9.028864], [-79.627367, 9.031119], [-79.62388, 9.029315], [-79.625093, 9.028413], [-79.62858, 9.028413], [-79.628883, 9.028864]]]}}, {"type": "Feature", "properties": {"place_id": "CZ-020", "source": "Canal Zone and Vicinity 1947 (audit trace 2026-09-13)", "notes": "Pedro Miguel main built-up lobe"}, "geometry": {"type": "Polygon", "coordinates": [[[-79.61812, 9.023601], [-79.615694, 9.027059], [-79.613572, 9.02721], [-79.610995, 9.024504], [-79.611298, 9.021797], [-79.61342, 9.020143], [-79.616301, 9.020294], [-79.617968, 9.021797], [-79.61812, 9.023601]]]}}, {"type": "Feature", "properties": {"place_id": "CZ-064", "source": "Canal Zone and Vicinity 1947 (audit trace 2026-09-13)", "notes": "Cocoli housing E of label ~800 m S of the 1947 read; bears on the open Cocoli 1911-vs-1947 identity ruling."}, "geometry": {"type": "Polygon", "coordinates": [[[-79.596167, 8.979923], [-79.593833, 8.980915], [-79.591665, 8.978931], [-79.591332, 8.974962], [-79.593166, 8.973142], [-79.595834, 8.973969], [-79.596167, 8.979923]]]}}, {"type": "Feature", "properties": {"place_id": "CZ-027", "source": "Canal Zone and Vicinity 1947 (audit trace 2026-09-13)", "notes": "Gamboa townsite polygon"}, "geometry": {"type": "Polygon", "coordinates": [[[-79.706087, 9.122257], [-79.701947, 9.12255], [-79.699286, 9.12128], [-79.699582, 9.118543], [-79.698892, 9.117077], [-79.700765, 9.115514], [-79.702145, 9.11522], [-79.704806, 9.117077], [-79.706284, 9.118348], [-79.70865, 9.119227], [-79.707861, 9.120986], [-79.706087, 9.122257]]]}}, {"type": "Feature", "properties": {"place_id": "CZ-017", "source": "Canal Zone and Vicinity 1947 (audit trace 2026-09-13)", "notes": "Cristobal/Colon mass W lobe; New Cristobal (unregistered) excluded"}, "geometry": {"type": "Polygon", "coordinates": [[[-79.917133, 9.365688], [-79.910335, 9.365929], [-79.905965, 9.364004], [-79.89941, 9.365448], [-79.899167, 9.360877], [-79.902566, 9.355585], [-79.90111, 9.352217], [-79.902566, 9.350052], [-79.908393, 9.352217], [-79.911306, 9.355585], [-79.917133, 9.356306], [-79.917133, 9.365688]]]}}, {"type": "Feature", "properties": {"place_id": "CZ-065", "source": "Canal Zone and Vicinity 1947 (audit trace 2026-09-13)", "notes": "Margarita patch"}, "geometry": {"type": "Polygon", "coordinates": [[[-79.89504, 9.330085], [-79.891642, 9.329364], [-79.891884, 9.325274], [-79.896011, 9.325996], [-79.89504, 9.330085]]]}}, {"type": "Feature", "properties": {"place_id": "CZ-010", "source": "Canal Zone and Vicinity 1947 (audit trace 2026-09-13)", "notes": "Gatun town 1947 (the persisted relocation town)"}, "geometry": {"type": "Polygon", "coordinates": [[[-79.924551, 9.277114], [-79.922973, 9.278557], [-79.920182, 9.278557], [-79.92006, 9.272664], [-79.920667, 9.27098], [-79.921881, 9.269416], [-79.925521, 9.270739], [-79.925643, 9.274708], [-79.924551, 9.277114]]]}}, {"type": "Feature", "properties": {"place_id": "CZ-022", "source": "Canal Zone and Vicinity 1947 (audit trace 2026-09-13)", "notes": "Corozal diamond (S lobe continues off-window)"}, "geometry": {"type": "Polygon", "coordinates": [[[-79.576409, 8.98637], [-79.573544, 8.988941], [-79.570134, 8.986234], [-79.573544, 8.983393], [-79.576409, 8.98637]]]}}, {"type": "Feature", "properties": {"place_id": "CZ-069", "source": "Canal Zone and Vicinity 1947 (audit trace 2026-09-13)", "notes": "Fort Sherman post at Toro Point"}, "geometry": {"type": "Polygon", "coordinates": [[[-79.959513, 9.372104], [-79.956675, 9.372931], [-79.953671, 9.374089], [-79.951835, 9.373923], [-79.952335, 9.371277], [-79.952836, 9.369458], [-79.950666, 9.369954], [-79.950165, 9.367638], [-79.950332, 9.364662], [-79.952335, 9.363835], [-79.953337, 9.361354], [-79.956675, 9.365158], [-79.957176, 9.369292], [-79.958845, 9.371442], [-79.959513, 9.372104]]]}}, {"type": "Feature", "properties": {"place_id": "CZ-066", "source": "Canal Zone and Vicinity 1947 (audit trace 2026-09-13)", "notes": "Coco Solo naval station strip, E shore"}, "geometry": {"type": "Polygon", "coordinates": [[[-79.89003, 9.383554], [-79.883854, 9.382065], [-79.88302, 9.373962], [-79.885023, 9.372969], [-79.881517, 9.369], [-79.881017, 9.358746], [-79.883353, 9.354115], [-79.89003, 9.354446], [-79.89003, 9.383554]]]}}, {"type": "Feature", "properties": {"place_id": "CZ-017", "source": "ICC1909 zone map (audit trace 2026-09-13)", "notes": "Colon hatched grid + Cristobal solid blocks as drawn 1908"}, "geometry": {"type": "Polygon", "coordinates": [[[-79.904058, 9.366725], [-79.893375, 9.366725], [-79.892404, 9.365282], [-79.895075, 9.358787], [-79.896774, 9.354216], [-79.89726, 9.351329], [-79.898717, 9.349886], [-79.900416, 9.345075], [-79.908671, 9.345075], [-79.906971, 9.35181], [-79.905029, 9.353254], [-79.904543, 9.357103], [-79.904786, 9.361914], [-79.904058, 9.366725]]]}}, {"type": "Feature", "properties": {"place_id": "CZ-021", "source": "PACIFIC1947 (pcc00008)", "notes": "La Boca silver-rate town street grid, 1947 (Jamaica/Barbados/Martinique/St Thomas/Trinidad/San Domingo streets)"}, "geometry": {"type": "Polygon", "coordinates": [[[-79.566561, 8.950527], [-79.563785, 8.950446], [-79.563295, 8.949075], [-79.56354, 8.947138], [-79.565908, 8.946977], [-79.566725, 8.948429], [-79.566561, 8.950527]]]}}, {"type": "Feature", "properties": {"place_id": "CZ-161", "source": "PACIFIC1947 (pcc00008)", "notes": "Gorgas Hospital pavilion complex, 1947 (replaces the withdrawn Map No.3 hull - M3 Pacific-corner offset)"}, "geometry": {"type": "Polygon", "coordinates": [[[-79.550375, 8.960731], [-79.550269, 8.961578], [-79.549779, 8.962022], [-79.549003, 8.962062], [-79.548513, 8.961578], [-79.548554, 8.960893], [-79.54933, 8.960651], [-79.549983, 8.960651], [-79.550375, 8.960731]]]}}, {"type": "Feature", "properties": {"place_id": "CZ-179", "label": "Police Station, labeled 'Police Station 145', as drawn (registered as 147 until the 2026-09-14 correction)", "source": "Map of Culebra, Sept 1910 (ICC Central Division, Office of Res. Engr.; LOC pcc00016) - building outline as drawn; very faint photostat with upside-down lettering (180-deg rotation test clean, geometry correct); georef +-150 m absolute"}, "geometry": {"type": "Polygon", "coordinates": [[[-79.646308, 9.037232], [-79.646474, 9.037121], [-79.646254, 9.036717], [-79.646082, 9.036833], [-79.646308, 9.037232]]]}}, {"type": "Feature", "properties": {"place_id": "CZ-180", "label": "Penitentiary, labeled 'Penitentiary 173', as drawn", "source": "Map of Culebra, Sept 1910 (ICC Central Division, Office of Res. Engr.; LOC pcc00016) - building outline as drawn; very faint photostat with upside-down lettering (180-deg rotation test clean, geometry correct); georef +-150 m absolute"}, "geometry": {"type": "Polygon", "coordinates": [[[-79.646594, 9.036847], [-79.646817, 9.036701], [-79.646524, 9.036269], [-79.646301, 9.036415], [-79.646594, 9.036847]]]}}, {"type": "Feature", "properties": {"place_id": "CZ-181", "label": "Pumping Station, labeled 'Pumping Station 146', as drawn", "source": "Map of Culebra, Sept 1910 (ICC Central Division, Office of Res. Engr.; LOC pcc00016) - building outline as drawn; very faint photostat with upside-down lettering (180-deg rotation test clean, geometry correct); georef +-150 m absolute"}, "geometry": {"type": "Polygon", "coordinates": [[[-79.647217, 9.03619], [-79.64694, 9.036248], [-79.646794, 9.035986], [-79.647071, 9.035928], [-79.647217, 9.03619]]]}}, {"type": "Feature", "properties": {"place_id": "CZ-159", "label": "Baptist Mission Church, labeled 'Baptist Mission Church 164' - main hall + '164' annex + south porch as drawn; detached outbuilding at the SW corner excluded", "source": "Map of Culebra, Sept 1910 (ICC Central Division, Office of Res. Engr.; LOC pcc00016) - building outline as drawn; very faint photostat with upside-down lettering (180-deg rotation test clean, geometry correct); georef +-150 m absolute"}, "geometry": {"type": "Polygon", "coordinates": [[[-79.654893, 9.04782], [-79.654788, 9.047801], [-79.654777, 9.047826], [-79.654676, 9.047794], [-79.654666, 9.047782], [-79.654754, 9.047604], [-79.654904, 9.047599], [-79.654914, 9.04765], [-79.654964, 9.047664], [-79.654893, 9.04782]]]}}, {"type": "Feature", "properties": {"place_id": "CZ-107", "label": "Catholic Church, labeled 'Cath. Church' - nave + head + west porch, cruciform as drawn (degraded photostat: edges read within the drawn line thickness)", "source": "General map of Empire c.1909 (pcc00020, ~1:1000) - building outline as drawn on the 2026-09-13 corrected re-warp (previous EMPIRE.tif was mirror-flipped); absolute position +-200 m (Map No.3 arbitration)"}, "geometry": {"type": "Polygon", "coordinates": [[[-79.670307, 9.062979], [-79.670233, 9.062986], [-79.670228, 9.062919], [-79.67017, 9.062728], [-79.670231, 9.062706], [-79.670287, 9.062897], [-79.670302, 9.062891], [-79.670346, 9.062883], [-79.67035, 9.062916], [-79.670306, 9.062924], [-79.670307, 9.062979]]]}}, {"type": "Feature", "properties": {"place_id": "CZ-076", "label": "Alto Emperador - envelope of the drawn dwelling scatter (black native-village symbols) SW of the P.R.R.; the red French company town NE of the line is Emperador proper (traced under CZ-011)", "source": "GORPAN1895 sheet 2 (re-anchored warp) - settlement envelope as drawn, labeled ALTO EMPERADOR [refit v2 2026-09-14]"}, "geometry": {"type": "Polygon", "coordinates": [[[-79.669149, 9.058566], [-79.668734, 9.058466], [-79.668343, 9.05764], [-79.66788, 9.05718], [-79.667694, 9.056811], [-79.667723, 9.056603], [-79.668237, 9.056478], [-79.668855, 9.057298], [-79.669047, 9.057495], [-79.669086, 9.058253], [-79.669149, 9.058566]]]}}, {"type": "Feature", "properties": {"place_id": "CZ-158", "label": "Silver City - envelope of the built-up parcels flanking the Silver City road; the sheet's label itself sits over the bay swamp ~800 m NE (which is where the coordinate claim was read)", "source": "Canal Zone and Vicinity 1947 (pcc00002, 1:100,000) - built-up extent as drawn; coarse sheet scale, edges +-25 m at best"}, "geometry": {"type": "Polygon", "coordinates": [[[-79.900294, 9.35046], [-79.897637, 9.350011], [-79.897789, 9.347913], [-79.896271, 9.34709], [-79.895512, 9.343794], [-79.895056, 9.343194], [-79.895056, 9.341022], [-79.898093, 9.340947], [-79.899915, 9.34267], [-79.900446, 9.344243], [-79.900446, 9.348363], [-79.900294, 9.35046]]]}}, {"type": "Feature", "properties": {"place_id": "CZ-163", "label": "Chinese Cemetery - dashed parcel labeled CHINESE CEMETERY between the Corozal road and the ravine; dashed boundary as drawn (limits approximate), NEW CEMETERIES to the south excluded", "source": "ICC Surveys 1905-06 Map No.3 - cemetery parcel boundary as drawn [Pacific re-anchor 2026-09-14]"}, "geometry": {"type": "Polygon", "coordinates": [[[-79.54873, 8.955241], [-79.547622, 8.955236], [-79.547625, 8.954706], [-79.547828, 8.954321], [-79.548072, 8.954091], [-79.548345, 8.953963], [-79.548805, 8.953709], [-79.549205, 8.953566], [-79.54975, 8.953416], [-79.550163, 8.953446], [-79.549821, 8.953888], [-79.549465, 8.954356], [-79.549076, 8.954867], [-79.54873, 8.955241]]]}}, {"type": "Feature", "properties": {"place_id": "CZ-174", "label": "Jamaica Town - envelope of the drawn-but-unnamed nine-building quarter SW of the P.R.R. tracks (morphological identification per the 2026-09-14 ruling)", "source": "Map of Gorgona, saloon licensing, 1:2000, Dec 1908 (pcc00017) - quarter envelope as drawn"}, "geometry": {"type": "Polygon", "coordinates": [[[-79.726667, 9.113721], [-79.72587, 9.113721], [-79.725849, 9.113493], [-79.725633, 9.113328], [-79.725633, 9.113088], [-79.725864, 9.112863], [-79.726162, 9.112869], [-79.726308, 9.113079], [-79.726357, 9.113349], [-79.726646, 9.113388], [-79.726667, 9.113721]]]}}, {"type": "Feature", "properties": {"place_id": "CZ-158", "source": "ATLANTIC1947 (AA00038126)", "notes": "Silver City street grid, 1947 (St. Kitts/Barbados/Martinique/St. Lucia/Trinidad streets)"}, "geometry": {"type": "Polygon", "coordinates": [[[-79.900045, 9.347319], [-79.898252, 9.347416], [-79.897174, 9.347252], [-79.897145, 9.344563], [-79.897537, 9.343403], [-79.899183, 9.343161], [-79.899987, 9.34321], [-79.900379, 9.34526], [-79.900241, 9.34671], [-79.900045, 9.347319]]]}}, {"type": "Feature", "properties": {"place_id": "CZ-212", "source": "ATLANTIC1947 (AA00038126)", "notes": "Camp Bierd barracks rows, 1947"}, "geometry": {"type": "Polygon", "coordinates": [[[-79.904083, 9.348528], [-79.903789, 9.34993], [-79.903103, 9.350027], [-79.901535, 9.349253], [-79.901829, 9.34819], [-79.903544, 9.348238], [-79.904083, 9.348528]]]}}, {"type": "Feature", "properties": {"place_id": "CZ-017", "source": "ATLANTIC1947 (AA00038126)", "notes": "Colon + New Cristobal urban extent, 1947 (Republic city + Zone quarter)"}, "geometry": {"type": "Polygon", "coordinates": [[[-79.910138, 9.367733], [-79.90516, 9.368303], [-79.900181, 9.367164], [-79.897692, 9.364316], [-79.896734, 9.361849], [-79.898649, 9.359001], [-79.900181, 9.355205], [-79.90267, 9.352547], [-79.906308, 9.354256], [-79.908989, 9.357103], [-79.910329, 9.362039], [-79.910904, 9.365266], [-79.910138, 9.367733]]]}}, {"type": "Feature", "properties": {"place_id": "CZ-156", "source": "GUACHAPALI1890 (pcc00018)", "notes": "Village de Guachapali built band, 1890 (1:500 lot-by-lot plan)"}, "geometry": {"type": "Polygon", "coordinates": [[[-79.54074, 8.963918], [-79.540376, 8.96378], [-79.54025, 8.963503], [-79.540306, 8.963117], [-79.540348, 8.962647], [-79.540376, 8.962233], [-79.540306, 8.961791], [-79.540167, 8.961404], [-79.540055, 8.961018], [-79.540153, 8.960838], [-79.540348, 8.960907], [-79.540572, 8.961266], [-79.54067, 8.961681], [-79.540768, 8.962067], [-79.540796, 8.962482], [-79.540913, 8.962868], [-79.541103, 8.963089], [-79.541209, 8.963255], [-79.541159, 8.963586], [-79.540963, 8.963807], [-79.54074, 8.963918]]]}}, {"type": "Feature", "properties": {"place_id": "CZ-024", "source": "CENSUS1940_PARAISO (naId 5838613)", "notes": "Paraiso built band, 1940 census ED base quad (building-by-building, all numbered)"}, "geometry": {"type": "Polygon", "coordinates": [[[-79.62308, 9.03365], [-79.620473, 9.033147], [-79.619094, 9.031579], [-79.61886, 9.028575], [-79.616462, 9.023739], [-79.616286, 9.022187], [-79.617866, 9.022121], [-79.622453, 9.025604], [-79.625035, 9.02789], [-79.625762, 9.030209], [-79.624626, 9.032454], [-79.62308, 9.03365]]]}}, {"type": "Feature", "properties": {"place_id": "CZ-172", "source": "CENSUS1940_PEDROMIGUEL (5838615 p.002)", "notes": "Pedro Miguel as-built town, 1940 ED quad (building-by-building, numbered)"}, "geometry": {"type": "Polygon", "coordinates": [[[-79.610051, 9.032796], [-79.604285, 9.028917], [-79.602906, 9.025245], [-79.605748, 9.02314], [-79.61026, 9.024956], [-79.612433, 9.028298], [-79.611848, 9.031311], [-79.610051, 9.032796]]]}}, {"type": "Feature", "properties": {"place_id": "CZ-051", "source": "CENSUS1940_REDTANK (5838615 p.003)", "notes": "Red Tank row-town, 1940 ED quad (numbered 511-567+; provisional frame \u00b1300-400 m)"}, "geometry": {"type": "Polygon", "coordinates": [[[-79.601066, 9.021238], [-79.597063, 9.020355], [-79.591548, 9.019695], [-79.589333, 9.019324], [-79.588957, 9.018003], [-79.592216, 9.017755], [-79.597481, 9.018704], [-79.601116, 9.019777], [-79.601066, 9.021238]]]}}, {"type": "Feature", "properties": {"place_id": "CZ-018", "source": "CENSUS1940_ANCON (5838606 p.002)", "notes": "Ancon residential arc, 1940 ED quad"}, "geometry": {"type": "Polygon", "coordinates": [[[-79.553965, 8.966654], [-79.551921, 8.966915], [-79.549919, 8.966099], [-79.547832, 8.96409], [-79.546823, 8.961885], [-79.545732, 8.960285], [-79.546665, 8.95974], [-79.549038, 8.960648], [-79.551012, 8.962787], [-79.552921, 8.963969], [-79.553988, 8.965332], [-79.553965, 8.966654]]]}}, {"type": "Feature", "properties": {"place_id": "CZ-046", "source": "CENSUS1940_ANCON (5838606 p.002)", "notes": "Balboa Heights, 1940 ED quad"}, "geometry": {"type": "Polygon", "coordinates": [[[-79.555923, 8.965194], [-79.553936, 8.964616], [-79.553205, 8.96287], [-79.553159, 8.960596], [-79.555098, 8.958899], [-79.557013, 8.958524], [-79.558679, 8.959723], [-79.558723, 8.961999], [-79.5573, 8.964138], [-79.555923, 8.965194]]]}}, {"type": "Feature", "properties": {"place_id": "CZ-158", "source": "CENSUS1940_SILVERCITY (5838622 p.011)", "notes": "Silver City Townsite, 1940 ED quad (houses 6001-6076+; church/school/ball park named)"}, "geometry": {"type": "Polygon", "coordinates": [[[-79.897174, 9.347252], [-79.896516, 9.347204], [-79.89579, 9.345222], [-79.896269, 9.344272], [-79.897535, 9.343404], [-79.899001, 9.343772], [-79.900191, 9.345172], [-79.8992, 9.346471], [-79.897174, 9.347252]]]}}, {"type": "Feature", "properties": {"place_id": "CZ-010", "source": "CENSUS1940_GATUN (5838624 p.001)", "notes": "New Gatun town + silver quarters, 1940 ED quad (\u00b1300-500 m frame)"}, "geometry": {"type": "Polygon", "coordinates": [[[-79.913829, 9.29487], [-79.910314, 9.290785], [-79.909209, 9.286523], [-79.909596, 9.281269], [-79.902242, 9.274742], [-79.903138, 9.27129], [-79.909278, 9.268631], [-79.915267, 9.268927], [-79.919615, 9.273172], [-79.919973, 9.27793], [-79.916505, 9.282381], [-79.916378, 9.289604], [-79.913829, 9.29487]]]}}, {"type": "Feature", "properties": {"place_id": "CZ-048", "source": "CENSUS1940_PALOSECO (naId 5838612, dwg 6100-90)", "notes": "Palo Seco Leper Colony boundary tract, 346.75 acres (posts A-D + high-water monuments; E edge follows the drawn shore)"}, "geometry": {"type": "Polygon", "coordinates": [[[-79.574807, 8.921549], [-79.575607, 8.916907], [-79.570585, 8.911476], [-79.571429, 8.907624], [-79.567567, 8.906648], [-79.5663, 8.910633], [-79.565402, 8.915514], [-79.563964, 8.921549], [-79.574807, 8.921549]]]}}, {"type": "Feature", "properties": {"place_id": "CZ-050", "source": "CENSUS1940_SUMMIT (naId 5838616)", "notes": "Summit 1940: the Plant Introduction Gardens road web with botanical street names + dispersed numbered buildings (graticule-true warp)"}, "geometry": {"type": "Polygon", "coordinates": [[[-79.65182, 9.066812], [-79.64934, 9.066919], [-79.646969, 9.067025], [-79.646214, 9.0666], [-79.646484, 9.062129], [-79.647831, 9.062022], [-79.649125, 9.061969], [-79.651173, 9.062714], [-79.652574, 9.063672], [-79.653221, 9.064737], [-79.65279, 9.066067], [-79.65182, 9.066812]]]}}, {"type": "Feature", "properties": {"place_id": "CZ-214", "source": "FDL1000 (naId 5838610, Section of Surveys dwg 6056-5, 1:1,000)", "notes": "Fort de Lesseps fenced ground: battery arc + barracks rows W of the hotel access road (hotel grounds excluded); coast on the Limon Bay side"}, "geometry": {"type": "Polygon", "coordinates": [[[-79.911208, 9.365995], [-79.911365, 9.365486], [-79.911388, 9.364932], [-79.911276, 9.364466], [-79.911028, 9.36409], [-79.910714, 9.363846], [-79.91022, 9.363824], [-79.909973, 9.36389], [-79.91013, 9.364511], [-79.910175, 9.365087], [-79.91022, 9.36553], [-79.910287, 9.365885], [-79.910445, 9.366062], [-79.910849, 9.366084], [-79.911208, 9.365995]]]}}, {"type": "Feature", "properties": {"place_id": "CZ-213", "source": "ATLANTIC1947 (AA00038126)", "notes": "Mount Hope Cemetery, 1947: the lobed enclosure of drives between Wilson St and the tank farm - the southern drive is the tank-farm boundary. Traced 2026-09-16, retiring the earlier honest-skip (the bounds do close)."}, "geometry": {"type": "Polygon", "coordinates": [[[-79.899979, 9.338673], [-79.898003, 9.338806], [-79.897194, 9.339116], [-79.896835, 9.339293], [-79.896161, 9.338407], [-79.895128, 9.338185], [-79.895173, 9.3369], [-79.896161, 9.33628], [-79.8967, 9.336368], [-79.897194, 9.336014], [-79.898227, 9.335615], [-79.899261, 9.336058], [-79.899665, 9.336368], [-79.900159, 9.336856], [-79.900294, 9.338185], [-79.900159, 9.338629], [-79.899979, 9.338673]]]}}, {"type": "Feature", "properties": {"place_id": "CZ-022", "source": "CENSUS1940_CLAYTON (naId 5838609)", "notes": "Corozal Hospital Farm tract (10), 1940: monument-to-monument boundary (MON 7/8/9/10/4/I.C.C., copper plug in bridge at the N corner); SW run along the rail corridor approximate within ~50 m"}, "geometry": {"type": "Polygon", "coordinates": [[[-79.576181, 9.000558], [-79.572265, 8.9974], [-79.569354, 8.996264], [-79.568007, 8.988722], [-79.570971, 8.986149], [-79.576092, 8.987303], [-79.579415, 8.991437], [-79.578427, 8.992005], [-79.578158, 8.992396], [-79.578158, 8.995022], [-79.576181, 9.000558]]]}}]}